STARLINK-1988           
1 47584U 21009AN  21188.91668981  .00013526  00000-0  15357-3 0  9999
2 47584  53.0530  92.0317 0004073  12.5421  23.0184 15.62705814  3692
STARLINK-1989           
1 47585U 21009AP  21188.84718531  .00001083  00000-0  91748-4 0  9993
2 47585  53.0551 119.4336 0009283  32.0224 328.1327 15.06392594 23681
STARLINK-1990           
1 47586U 21009AQ  21188.56519619  .00001296  00000-0  10584-3 0  9993
2 47586  53.0547 140.6978 0000806  28.1205 331.9828 15.06399715 23367
STARLINK-1991           
1 47587U 21009AR  21188.83334491 -.00006081  00000-0 -38965-3 0  9999
2 47587  53.0545 109.4934 0002105  82.5259 317.5130 15.06401769  3602
STARLINK-1993           
1 47588U 21009AS  21188.75133610  .00000740  00000-0  68595-4 0  9998
2 47588  53.0580 119.8752 0001562  71.6500 288.4659 15.06404338 23675
STARLINK-1994           
1 47589U 21009AT  21188.83612089 -.00000987  00000-0 -47353-4 0  9994
2 47589  53.0551 119.4821 0001569  68.7461 291.3695 15.06391967 23684
STARLINK-1995           
1 47590U 21009AU  21188.56153379  .00000578  00000-0  57687-4 0  9993
2 47590  53.0549 140.7151 0000902  28.1764 331.9273 15.06405734 23368
STARLINK-1996           
1 47591U 21009AV  21188.50069199 -.00000345  00000-0 -42873-5 0  9990
2 47591  53.0545 120.9840 0001573  56.3858 303.7280 15.06404498 23633
STARLINK-1997           
1 47592U 21009AW  21188.59837155  .00000934  00000-0  81569-4 0  9991
2 47592  53.0556 140.5534 0000790  35.2318 324.8723 15.06398641 23369
STARLINK-1998           
1 47593U 21009AX  21188.90061253  .00000875  00000-0  77588-4 0  9995
2 47593  53.0552 139.2081 0000926  17.8308 342.2713 15.06405378 23419
STARLINK-1999           
1 47594U 21009AY  21188.60206268  .00001142  00000-0  95540-4 0  9996
2 47594  53.0553 140.5366 0001030  42.9334 317.1735 15.06400786 23364
STARLINK-2000           
1 47595U 21009AZ  21188.58732630  .00000659  00000-0  63103-4 0  9993
2 47595  53.0564 140.5971 0000863  48.0027 312.1035 15.06395674 23365
STARLINK-2001           
1 47596U 21009BA  21188.59099232  .00000746  00000-0  68964-4 0  9996
2 47596  53.0551 140.5873 0000864  39.5187 320.5865 15.06405722 23366
STARLINK-2002           
1 47597U 21009BB  21188.58363926  .00000858  00000-0  76443-4 0  9995
2 47597  53.0552 140.6221 0000972  61.6627 298.4459 15.06405181 23362
STARLINK-2003           
1 47598U 21009BC  21188.92550649 -.00000791  00000-0 -34194-4 0  9999
2 47598  53.1154 108.7638 0001795  86.1059 274.0136 15.06402682 23842
STARLINK-2004           
1 47599U 21009BD  21188.91534040 -.00022993  00000-0 -15251-2 0  9995
2 47599  53.0523  99.1243 0001476  59.5823 300.5312 15.06510350 23973
STARLINK-2005           
1 47600U 21009BE  21188.91668981 -.00463015  00000-0 -24169-1 0  9991
2 47600  53.0517  99.4227 0002632 288.4595  50.4743 15.17674139  3658
STARLINK-2006           
1 47601U 21009BF  21188.91905559 -.00000483  00000-0 -13507-4 0  9990
2 47601  53.0540  99.1086 0001968  82.5779 277.5433 15.06393668 23971
STARLINK-2007           
1 47602U 21009BG  21188.83334491 -.00004671  00000-0 -29479-3 0  9990
2 47602  53.0476 109.5464 0002150  81.2732  58.8039 15.06407630  3598
STARLINK-2008           
1 47603U 21009BH  21188.28875291 -.00001003  00000-0 -48503-4 0  9994
2 47603  53.0524 141.9474 0000903  49.4686 310.6382 15.06393493 23315
STARLINK-2021           
1 47604U 21009BJ  21188.83334491 -.00005618  00000-0 -35843-3 0  9996
2 47604  53.0555 109.4961 0001970  86.8622  13.1991 15.06412375  3590
STARLINK-2023           
1 47605U 21009BK  21188.83334491 -.00005016  00000-0 -31803-3 0  9991
2 47605  53.0384 109.5810 0001946  86.1142  33.9639 15.06401346  3593
STARLINK-2024           
1 47606U 21009BL  21188.83334491 -.00005964  00000-0 -38174-3 0  9992
2 47606  53.0538 109.4914 0001596  84.6436 355.4233 15.06406786  3594
STARLINK-2025           
1 47607U 21009BM  21188.92920730 -.00002083  00000-0 -12105-3 0  9995
2 47607  53.0559 109.0766 0001974  67.2520 292.8677 15.06381659 23836
FLOCK 4S-42             
1 47612U 21006EQ  21188.73762454  .00001202  00000-0  72052-4 0  9992
2 47612  97.4921 249.5977 0012615  47.2430 312.9860 15.12789303 25119
TJS-6                   
1 47613U 21010A   21188.83587601  .00000054  00000-0  00000-0 0  9992
2 47613   0.6620 281.5099 0000855 265.6073 218.2700  1.00270899  1735
ARCE-1B                 
1 47615U 21006EG  21188.40463090  .00001734  00000-0  10227-3 0  9998
2 47615  97.4881 249.1760 0010877  45.5193 314.6925 15.12838624 24142
P2-10                   
1 47616U 21006EH  21188.40377878  .00001696  00000-0  10006-3 0  9999
2 47616  97.4882 249.1783 0010875  45.5717 314.6402 15.12849837 25069
FLOCK 4S-48             
1 47617U 21006EJ  21188.88873168  .00000845  00000-0  51262-4 0  9990
2 47617  97.4907 249.8294 0012600  28.1362 332.0547 15.13155221 26112
PROGRESS-MS 16          
1 47618U 21011A   21188.56532476  .00000229  00000-0  12373-4 0  9992
2 47618  51.6436 241.9510 0001986 140.9840   5.9132 15.48768348291753
STARLINK-1528           
1 47620U 21012A   21188.68038429 -.00001446  00000-0 -78243-4 0  9990
2 47620  53.0547 170.1856 0000489 355.9402   4.1583 15.06395895 22840
STARLINK-1609           
1 47621U 21012B   21188.67302478  .00003109  00000-0  22739-3 0  9992
2 47621  53.0545 170.2151 0000530  14.0607 346.0396 15.06414743 22850
STARLINK-1645           
1 47622U 21012C   21188.66934461  .00003037  00000-0  22258-3 0  9991
2 47622  53.0541 170.2285 0000461  16.3522 343.7482 15.06409769 22840
STARLINK-1655           
1 47623U 21012D   21188.91668981  .00005990  00000-0  47136-4 0  9994
2 47623  53.0456 116.6944 0003607   7.0326 242.8089 15.73168381  3708
STARLINK-1669           
1 47624U 21012E   21188.83334491  .00029998  00000-0  20249-2 0  9990
2 47624  53.0525 149.4916 0001598  70.5892  69.4537 15.06387462  3596
STARLINK-1704           
1 47625U 21012F   21188.67673254  .00000577  00000-0  57624-4 0  9997
2 47625  53.0545 170.1985 0000400   3.8203 356.2789 15.06398793 22846
STARLINK-1761           
1 47626U 21012G   21188.66197458  .00000375  00000-0  44054-4 0  9993
2 47626  53.0539 170.2609 0000443 342.5173  17.5801 15.06389331 22840
STARLINK-1972           
1 47627U 21012H   21188.91668981 -.00058136  00000-0 -41242-3 0  9991
2 47627  53.0455 116.6842 0003554  16.5296 237.2078 15.73198585  3705
STARLINK-1973           
1 47628U 21012J   21188.43345138  .00000319  00000-0  40306-4 0  9994
2 47628  53.0555 171.2871 0000634  26.2310 333.8711 15.06389402 22813
STARLINK-1974           
1 47629U 21012K   21188.91668981  .00005043  00000-0  40342-4 0  9991
2 47629  53.0457 116.6845 0003847   7.5012 247.4885 15.73199768  3706
STARLINK-1983           
1 47630U 21012L   21188.62968134 -.00001150  00000-0 -58352-4 0  9991
2 47630  53.0540 150.4074 0000997  31.7318 328.3731 15.06398733 23106
STARLINK-1985           
1 47631U 21012M   21188.91668981  .00007284  00000-0  56250-4 0  9998
2 47631  53.0458 116.6962 0003810   4.3598 246.1461 15.73210227  3704
STARLINK-1992           
1 47632U 21012N   21188.91668981  .00006078  00000-0  47788-4 0  9995
2 47632  53.0456 116.6844 0003682  10.1798 244.1444 15.73154497  3701
STARLINK-2009           
1 47633U 21012P   21188.64722592  .00004682  00000-0  33300-3 0  9998
2 47633  53.0575 170.3395 0000320  23.8448 336.2556 15.06394244 22868
STARLINK-2010           
1 47634U 21012Q   21188.75781819  .00000611  00000-0  59913-4 0  9995
2 47634  53.0552 169.8389 0000458  11.3764 348.7236 15.06395341 22856
STARLINK-2012           
1 47635U 21012R   21188.91668981  .00007700  00000-0  59251-4 0  9999
2 47635  53.0459 116.6842 0003833   5.7942 250.4589 15.73192494  3703
STARLINK-2013           
1 47636U 21012S   21188.61220588  .00001475  00000-0  11799-3 0  9991
2 47636  53.0534 150.4926 0009586  13.4822 346.6421 15.06411628 23110
STARLINK-2014           
1 47637U 21012T   21188.38367068 -.00001256  00000-0 -65415-4 0  9995
2 47637  53.0546 151.5095 0001868  66.2954 293.8230 15.06391834 22576
STARLINK-2015           
1 47638U 21012U   21188.91668981  .00016337  00000-0  12081-3 0  9997
2 47638  53.0446 116.6846 0003677   7.7897 243.3576 15.73151437  3702
STARLINK-2016           
1 47639U 21012V   21188.69327522 -.00001810  00000-0 -10262-3 0  9997
2 47639  53.0536 150.1216 0001576  64.1327 295.9825 15.06416481 23114
STARLINK-2018           
1 47640U 21012W   21188.68777132  .00000469  00000-0  50371-4 0  9997
2 47640  53.0551 170.1527 0000647 347.3338  12.7635 15.06401901 22851
STARLINK-2019           
1 47641U 21012X   21188.91668981  .00004292  00000-0  35016-4 0  9992
2 47641  53.0453 116.6782 0003358   9.1272 246.5119 15.73187880  3701
STARLINK-2020           
1 47642U 21012Y   21188.35740155  .00001973  00000-0  15133-3 0  9995
2 47642  53.0542 166.6286 0000701  24.1988 335.9033 15.06390927 22865
STARLINK-2022           
1 47643U 21012Z   21188.30995180 -.00001187  00000-0 -60844-4 0  9990
2 47643  53.0485 151.8744 0001274  64.0344 296.0776 15.06391623 22553
STARLINK-2026           
1 47644U 21012AA  21188.85365237  .00000354  00000-0  42630-4 0  9991
2 47644  53.0556 169.4165 0000399 343.3252  16.7724 15.06382887 22881
STARLINK-2027           
1 47645U 21012AB  21188.83334491  .00025748  00000-0  17402-2 0  9999
2 47645  53.0252 139.6435 0009125  15.3960 244.8084 15.06391751  3592
STARLINK-2028           
1 47646U 21012AC  21188.91668981  .00008014  00000-0  61494-4 0  9992
2 47646  53.0459 116.7022 0003854   8.9789 238.3313 15.73186614  3700
STARLINK-2030           
1 47647U 21012AD  21188.66562813  .00003203  00000-0  23370-3 0  9997
2 47647  53.0546 170.2487 0000430 325.3492  34.7468 15.06417254 22851
STARLINK-2031           
1 47648U 21012AE  21188.59008389  .00000420  00000-0  47065-4 0  9999
2 47648  53.0551 150.5809 0001076  57.9699 302.1394 15.06391257 23126
